[{"OBJECT_NAME":"SENTINEL-6A","OBJECT_ID":"2020-086A","EPOCH":"2026-04-03T21:55:15.697632","MEAN_MOTION":12.8093065,"ECCENTRICITY":0.00077243,"INCLINATION":66.0402,"RA_OF_ASC_NODE":289.3221,"ARG_OF_PERICENTER":270.7512,"MEAN_ANOMALY":89.2619,"EPHEMERIS_TYPE":0,"CLASSIFICATION_TYPE":"U","NORAD_CAT_ID":46984,"ELEMENT_SET_NO":999,"REV_AT_EPOCH":25081,"BSTAR":4.8072436e-5,"MEAN_MOTION_DOT":-5.0e-7,"MEAN_MOTION_DDOT":0},{"OBJECT_NAME":"GAOFEN-12 02","OBJECT_ID":"2021-026A","EPOCH":"2026-04-04T06:36:33.588864","MEAN_MOTION":14.80235673,"ECCENTRICITY":0.00062032,"INCLINATION":97.9933,"RA_OF_ASC_NODE":92.7642,"ARG_OF_PERICENTER":108.6469,"MEAN_ANOMALY":251.5416,"EPHEMERIS_TYPE":0,"CLASSIFICATION_TYPE":"U","NORAD_CAT_ID":48079,"ELEMENT_SET_NO":999,"REV_AT_EPOCH":27082,"BSTAR":0.0001096162,"MEAN_MOTION_DOT":7.81e-6,"MEAN_MOTION_DDOT":0},{"OBJECT_NAME":"PLEIADES NEO 3","OBJECT_ID":"2021-034A","EPOCH":"2026-04-04T10:33:49.899168","MEAN_MOTION":14.81674181,"ECCENTRICITY":0.0001316,"INCLINATION":97.8935,"RA_OF_ASC_NODE":170.2654,"ARG_OF_PERICENTER":98.2154,"MEAN_ANOMALY":261.9208,"EPHEMERIS_TYPE":0,"CLASSIFICATION_TYPE":"U","NORAD_CAT_ID":48268,"ELEMENT_SET_NO":999,"REV_AT_EPOCH":26673,"BSTAR":2.4493e-5,"MEAN_MOTION_DOT":1.41e-6,"MEAN_MOTION_DDOT":0},{"OBJECT_NAME":"PLEIADES NEO 4","OBJECT_ID":"2021-073E","EPOCH":"2026-04-02T17:14:01.453632","MEAN_MOTION":14.81674962,"ECCENTRICITY":0.00013617,"INCLINATION":97.8936,"RA_OF_ASC_NODE":168.5642,"ARG_OF_PERICENTER":93.2976,"MEAN_ANOMALY":266.8392,"EPHEMERIS_TYPE":0,"CLASSIFICATION_TYPE":"U","NORAD_CAT_ID":49070,"ELEMENT_SET_NO":999,"REV_AT_EPOCH":25019,"BSTAR":3.9217218e-5,"MEAN_MOTION_DOT":2.57e-6,"MEAN_MOTION_DDOT":0},{"OBJECT_NAME":"LANDSAT 9","OBJECT_ID":"2021-088A","EPOCH":"2026-04-04T04:06:25.026336","MEAN_MOTION":14.57124864,"ECCENTRICITY":0.00011796,"INCLINATION":98.1895,"RA_OF_ASC_NODE":165.54,"ARG_OF_PERICENTER":97.6841,"MEAN_ANOMALY":262.4492,"EPHEMERIS_TYPE":0,"CLASSIFICATION_TYPE":"U","NORAD_CAT_ID":49260,"ELEMENT_SET_NO":999,"REV_AT_EPOCH":24022,"BSTAR":0.00015665454,"MEAN_MOTION_DOT":6.61e-6,"MEAN_MOTION_DDOT":0},{"OBJECT_NAME":"CSG-2","OBJECT_ID":"2022-008A","EPOCH":"2026-04-04T07:06:21.229056","MEAN_MOTION":14.82149458,"ECCENTRICITY":0.00014596,"INCLINATION":97.8874,"RA_OF_ASC_NODE":278.9622,"ARG_OF_PERICENTER":82.7852,"MEAN_ANOMALY":277.3527,"EPHEMERIS_TYPE":0,"CLASSIFICATION_TYPE":"U","NORAD_CAT_ID":51444,"ELEMENT_SET_NO":999,"REV_AT_EPOCH":22564,"BSTAR":8.449102e-5,"MEAN_MOTION_DOT":6.2e-6,"MEAN_MOTION_DDOT":0},{"OBJECT_NAME":"GAOFEN-12 03","OBJECT_ID":"2022-069A","EPOCH":"2026-04-04T06:58:21.192384","MEAN_MOTION":14.7991358,"ECCENTRICITY":0.00022074,"INCLINATION":97.8373,"RA_OF_ASC_NODE":343.9942,"ARG_OF_PERICENTER":61.2722,"MEAN_ANOMALY":298.8712,"EPHEMERIS_TYPE":0,"CLASSIFICATION_TYPE":"U","NORAD_CAT_ID":52912,"ELEMENT_SET_NO":999,"REV_AT_EPOCH":20368,"BSTAR":0.00020577984,"MEAN_MOTION_DOT":1.503e-5,"MEAN_MOTION_DDOT":0},{"OBJECT_NAME":"SWOT","OBJECT_ID":"2022-173A","EPOCH":"2026-04-04T05:56:21.579936","MEAN_MOTION":14.00168113,"ECCENTRICITY":6.995e-5,"INCLINATION":77.6088,"RA_OF_ASC_NODE":135.1257,"ARG_OF_PERICENTER":205.3677,"MEAN_ANOMALY":154.7441,"EPHEMERIS_TYPE":0,"CLASSIFICATION_TYPE":"U","NORAD_CAT_ID":54754,"ELEMENT_SET_NO":999,"REV_AT_EPOCH":16880,"BSTAR":6.4483693e-5,"MEAN_MOTION_DOT":9.3e-7,"MEAN_MOTION_DDOT":0},{"OBJECT_NAME":"GAOFEN-12 04","OBJECT_ID":"2023-123A","EPOCH":"2026-04-04T07:35:31.371648","MEAN_MOTION":14.80083413,"ECCENTRICITY":0.00013388,"INCLINATION":97.9132,"RA_OF_ASC_NODE":13.4019,"ARG_OF_PERICENTER":77.2986,"MEAN_ANOMALY":282.8375,"EPHEMERIS_TYPE":0,"CLASSIFICATION_TYPE":"U","NORAD_CAT_ID":57654,"ELEMENT_SET_NO":999,"REV_AT_EPOCH":14170,"BSTAR":0.00033599685,"MEAN_MOTION_DOT":2.495e-5,"MEAN_MOTION_DDOT":0},{"OBJECT_NAME":"PARS 1","OBJECT_ID":"2024-039Q","EPOCH":"2026-04-04T06:48:07.385184","MEAN_MOTION":15.44178063,"ECCENTRICITY":0.00106239,"INCLINATION":97.4789,"RA_OF_ASC_NODE":72.9853,"ARG_OF_PERICENTER":34.0605,"MEAN_ANOMALY":326.1323,"EPHEMERIS_TYPE":0,"CLASSIFICATION_TYPE":"U","NORAD_CAT_ID":59065,"ELEMENT_SET_NO":999,"REV_AT_EPOCH":11723,"BSTAR":0.00045665368,"MEAN_MOTION_DOT":0.00020919,"MEAN_MOTION_DDOT":0},{"OBJECT_NAME":"RESURS-P 4","OBJECT_ID":"2024-061A","EPOCH":"2026-04-04T06:24:44.505792","MEAN_MOTION":15.3316266,"ECCENTRICITY":8.537e-5,"INCLINATION":97.2697,"RA_OF_ASC_NODE":43.4812,"ARG_OF_PERICENTER":85.0957,"MEAN_ANOMALY":275.0383,"EPHEMERIS_TYPE":0,"CLASSIFICATION_TYPE":"U","NORAD_CAT_ID":59371,"ELEMENT_SET_NO":999,"REV_AT_EPOCH":11244,"BSTAR":0.00021246494,"MEAN_MOTION_DOT":6.73e-5,"MEAN_MOTION_DDOT":0},{"OBJECT_NAME":"LEGION 1","OBJECT_ID":"2024-081A","EPOCH":"2026-04-04T04:53:10.989024","MEAN_MOTION":15.16607835,"ECCENTRICITY":0.00084333,"INCLINATION":97.5038,"RA_OF_ASC_NODE":172.8387,"ARG_OF_PERICENTER":277.116,"MEAN_ANOMALY":82.9114,"EPHEMERIS_TYPE":0,"CLASSIFICATION_TYPE":"U","NORAD_CAT_ID":59625,"ELEMENT_SET_NO":999,"REV_AT_EPOCH":10632,"BSTAR":0.0004195667,"MEAN_MOTION_DOT":8.141e-5,"MEAN_MOTION_DDOT":0},{"OBJECT_NAME":"LEGION 2","OBJECT_ID":"2024-081B","EPOCH":"2026-04-04T05:46:17.465088","MEAN_MOTION":15.16832131,"ECCENTRICITY":0.0009521,"INCLINATION":97.5037,"RA_OF_ASC_NODE":172.957,"ARG_OF_PERICENTER":244.8564,"MEAN_ANOMALY":115.1682,"EPHEMERIS_TYPE":0,"CLASSIFICATION_TYPE":"U","NORAD_CAT_ID":59626,"ELEMENT_SET_NO":999,"REV_AT_EPOCH":10633,"BSTAR":0.00043473587,"MEAN_MOTION_DOT":8.495e-5,"MEAN_MOTION_DDOT":0},{"OBJECT_NAME":"ALOS-4 (DAICHI-4)","OBJECT_ID":"2024-123A","EPOCH":"2026-04-02T19:34:19.378848","MEAN_MOTION":14.79483193,"ECCENTRICITY":0.00016145,"INCLINATION":97.9197,"RA_OF_ASC_NODE":191.0646,"ARG_OF_PERICENTER":100.5955,"MEAN_ANOMALY":259.5439,"EPHEMERIS_TYPE":0,"CLASSIFICATION_TYPE":"U","NORAD_CAT_ID":60182,"ELEMENT_SET_NO":999,"REV_AT_EPOCH":9473,"BSTAR":0.00034964834,"MEAN_MOTION_DOT":2.561e-5,"MEAN_MOTION_DDOT":0},{"OBJECT_NAME":"LEGION 3","OBJECT_ID":"2024-146A","EPOCH":"2026-04-04T05:58:56.461440","MEAN_MOTION":15.15433435,"ECCENTRICITY":0.00076029,"INCLINATION":45.0009,"RA_OF_ASC_NODE":66.8974,"ARG_OF_PERICENTER":108.4733,"MEAN_ANOMALY":251.6972,"EPHEMERIS_TYPE":0,"CLASSIFICATION_TYPE":"U","NORAD_CAT_ID":60452,"ELEMENT_SET_NO":999,"REV_AT_EPOCH":9080,"BSTAR":0.00045647914,"MEAN_MOTION_DOT":8.527e-5,"MEAN_MOTION_DDOT":0},{"OBJECT_NAME":"LEGION 4","OBJECT_ID":"2024-146B","EPOCH":"2026-04-04T05:58:42.837024","MEAN_MOTION":15.15432616,"ECCENTRICITY":0.00156497,"INCLINATION":45.0005,"RA_OF_ASC_NODE":158.7705,"ARG_OF_PERICENTER":259.3705,"MEAN_ANOMALY":100.5411,"EPHEMERIS_TYPE":0,"CLASSIFICATION_TYPE":"U","NORAD_CAT_ID":60453,"ELEMENT_SET_NO":999,"REV_AT_EPOCH":8965,"BSTAR":0.00043239423,"MEAN_MOTION_DOT":8.079e-5,"MEAN_MOTION_DDOT":0},{"OBJECT_NAME":"SENTINEL-2C","OBJECT_ID":"2024-157A","EPOCH":"2026-04-04T04:28:36.130656","MEAN_MOTION":14.30824227,"ECCENTRICITY":0.0001225,"INCLINATION":98.5651,"RA_OF_ASC_NODE":170.0322,"ARG_OF_PERICENTER":114.8029,"MEAN_ANOMALY":245.3281,"EPHEMERIS_TYPE":0,"CLASSIFICATION_TYPE":"U","NORAD_CAT_ID":60989,"ELEMENT_SET_NO":999,"REV_AT_EPOCH":8240,"BSTAR":9.5845536e-5,"MEAN_MOTION_DOT":2.08e-6,"MEAN_MOTION_DDOT":0}]
