SENTINEL-6A             
1 46984U 20086A   26093.91337613 -.00000050  00000+0  48072-4 0  9990
2 46984  66.0402 289.3221 0007724 270.7512  89.2619 12.80930650250817
GAOFEN-12 02            
1 48079U 21026A   26094.27538876  .00000781  00000+0  10962-3 0  9992
2 48079  97.9933  92.7642 0006203 108.6469 251.5416 14.80235673270827
PLEIADES NEO 3          
1 48268U 21034A   26094.44016087  .00000141  00000+0  24493-4 0  9990
2 48268  97.8935 170.2654 0001316  98.2154 261.9208 14.81674181266739
PLEIADES NEO 4          
1 49070U 21073E   26092.71807238  .00000257  00000+0  39217-4 0  9997
2 49070  97.8936 168.5642 0001361  93.2976 266.8392 14.81674962250194
LANDSAT 9               
1 49260U 21088A   26094.17112299  .00000661  00000+0  15665-3 0  9991
2 49260  98.1895 165.5400 0001179  97.6841 262.4492 14.57124864240228
CSG-2                   
1 51444U 22008A   26094.29607904  .00000620  00000+0  84491-4 0  9995
2 51444  97.8874 278.9622 0001459  82.7852 277.3527 14.82149458225648
GAOFEN-12 03            
1 52912U 22069A   26094.29052306  .00001503  00000+0  20578-3 0  9999
2 52912  97.8373 343.9942 0002207  61.2722 298.8712 14.79913580203686
SWOT                    
1 54754U 22173A   26094.24747199  .00000093  00000+0  64484-4 0  9995
2 54754  77.6088 135.1257 0000699 205.3677 154.7441 14.00168113168805
GAOFEN-12 04            
1 57654U 23123A   26094.31633532  .00002495  00000+0  33600-3 0  9999
2 57654  97.9132  13.4019 0001338  77.2986 282.8375 14.80083413141702
PARS 1                  
1 59065U 24039Q   26094.28341881  .00020919  00000+0  45665-3 0  9998
2 59065  97.4789  72.9853 0010623  34.0605 326.1323 15.44178063117238
RESURS-P 4              
1 59371U 24061A   26094.26718178  .00006730  00000+0  21246-3 0  9992
2 59371  97.2697  43.4812 0000853  85.0957 275.0383 15.33162660112442
LEGION 1                
1 59625U 24081A   26094.20359941  .00008141  00000+0  41957-3 0  9998
2 59625  97.5038 172.8387 0008433 277.1160  82.9114 15.16607835106328
LEGION 2                
1 59626U 24081B   26094.24047992  .00008495  00000+0  43474-3 0  9991
2 59626  97.5037 172.9570 0009521 244.8564 115.1682 15.16832131106330
ALOS-4 (DAICHI-4)       
1 60182U 24123A   26092.81550207  .00002561  00000+0  34965-3 0  9999
2 60182  97.9197 191.0646 0001614 100.5955 259.5439 14.79483193 94734
LEGION 3                
1 60452U 24146A   26094.24926460  .00008527  00000+0  45648-3 0  9999
2 60452  45.0009  66.8974 0007602 108.4733 251.6972 15.15433435 90801
LEGION 4                
1 60453U 24146B   26094.24910691  .00008079  00000+0  43239-3 0  9995
2 60453  45.0005 158.7705 0015649 259.3705 100.5411 15.15432616 89657
SENTINEL-2C             
1 60989U 24157A   26094.18652929  .00000208  00000+0  95846-4 0  9999
2 60989  98.5651 170.0322 0001225 114.8029 245.3281 14.30824227 82400
